{
  "type": "FeatureCollection",
  "features": [
    {
      "type": "Feature",
      "properties": {
        "norad_id": 40069,
        "name": "METEOR-M 2",
        "group": "weather",
        "lat": 35.4454503572242,
        "lon": 160.27954457752512,
        "alt_km": 814.9306608985316,
        "timestamp": "2025-12-22T23:36:20.342064+00:00",
        "meta_object_name": "METEOR-M 2",
        "meta_object_id": "2014-037A",
        "meta_epoch": "2025-12-22T14:28:58.715040",
        "meta_mean_motion": 14.21389068,
        "meta_eccentricity": 0.00054682,
        "meta_inclination": 98.4908,
        "meta_ra_of_asc_node": 333.8097,
        "meta_arg_of_pericenter": 178.5435,
        "meta_mean_anomaly": 181.576,
        "meta_ephemeris_type": 0,
        "meta_classification_type": "U",
        "meta_norad_cat_id": 40069,
        "meta_element_set_no": 999,
        "meta_rev_at_epoch": 59423,
        "meta_bstar": -5.8109022e-05,
        "meta_mean_motion_dot": -1.69e-06,
        "meta_mean_motion_ddot": 0,
        "tle_line1": "1 40069U 14037A   25356.60345735 -.00000169  00000+0 -58109-4 0  9992",
        "tle_line2": "2 40069  98.4908 333.8097 0005468 178.5435 181.5760 14.21389068594231"
      },
      "geometry": {
        "type": "Point",
        "coordinates": [
          160.27954457752512,
          35.4454503572242
        ]
      }
    },
    {
      "type": "Feature",
      "properties": {
        "norad_id": 40267,
        "name": "HIMAWARI-8",
        "group": "weather",
        "lat": -0.022970834041430282,
        "lon": -133.48478513269038,
        "alt_km": 35785.302878383634,
        "timestamp": "2025-12-22T23:36:20.342076+00:00",
        "meta_object_name": "HIMAWARI-8",
        "meta_object_id": "2014-060A",
        "meta_epoch": "2025-12-22T13:50:05.574624",
        "meta_mean_motion": 1.0027245,
        "meta_eccentricity": 8.015e-05,
        "meta_inclination": 0.0463,
        "meta_ra_of_asc_node": 220.1473,
        "meta_arg_of_pericenter": 85.6977,
        "meta_mean_anomaly": 133.7225,
        "meta_ephemeris_type": 0,
        "meta_classification_type": "U",
        "meta_norad_cat_id": 40267,
        "meta_element_set_no": 999,
        "meta_rev_at_epoch": 4098,
        "meta_bstar": 0,
        "meta_mean_motion_dot": -2.54e-06,
        "meta_mean_motion_ddot": 0,
        "tle_line1": "1 40267U 14060A   25356.57645341 -.00000254  00000+0  00000+0 0  9996",
        "tle_line2": "2 40267   0.0463 220.1473 0000801  85.6977 133.7225  1.00272450 40989"
      },
      "geometry": {
        "type": "Point",
        "coordinates": [
          -133.48478513269038,
          -0.022970834041430282
        ]
      }
    },
    {
      "type": "Feature",
      "properties": {
        "norad_id": 40367,
        "name": "FENGYUN 2G",
        "group": "weather",
        "lat": 4.8834794981372225,
        "lon": -174.90847705733043,
        "alt_km": 35789.32854627155,
        "timestamp": "2025-12-22T23:36:20.342088+00:00",
        "meta_object_name": "FENGYUN 2G",
        "meta_object_id": "2014-090A",
        "meta_epoch": "2025-12-22T13:38:14.210592",
        "meta_mean_motion": 1.00260417,
        "meta_eccentricity": 0.00026503,
        "meta_inclination": 5.1915,
        "meta_ra_of_asc_node": 74.985,
        "meta_arg_of_pericenter": 203.3456,
        "meta_mean_anomaly": 116.7977,
        "meta_ephemeris_type": 0,
        "meta_classification_type": "U",
        "meta_norad_cat_id": 40367,
        "meta_element_set_no": 999,
        "meta_rev_at_epoch": 4022,
        "meta_bstar": 0,
        "meta_mean_motion_dot": -2.79e-06,
        "meta_mean_motion_ddot": 0,
        "tle_line1": "1 40367U 14090A   25356.56822003 -.00000279  00000+0  00000+0 0  9998",
        "tle_line2": "2 40367   5.1915  74.9850 0002650 203.3456 116.7977  1.00260417 40229"
      },
      "geometry": {
        "type": "Point",
        "coordinates": [
          -174.90847705733043,
          4.8834794981372225
        ]
      }
    },
    {
      "type": "Feature",
      "properties": {
        "norad_id": 40732,
        "name": "METEOSAT-11 (MSG-4)",
        "group": "weather",
        "lat": 1.1058876640793422,
        "lon": 95.01520088355028,
        "alt_km": 35787.60359766839,
        "timestamp": "2025-12-22T23:36:20.342100+00:00",
        "meta_object_name": "METEOSAT-11 (MSG-4)",
        "meta_object_id": "2015-034A",
        "meta_epoch": "2025-12-22T04:38:57.052896",
        "meta_mean_motion": 1.00270451,
        "meta_eccentricity": 7.893e-05,
        "meta_inclination": 2.7599,
        "meta_ra_of_asc_node": 71.9763,
        "meta_arg_of_pericenter": 136.9247,
        "meta_mean_anomaly": 321.0298,
        "meta_ephemeris_type": 0,
        "meta_classification_type": "U",
        "meta_norad_cat_id": 40732,
        "meta_element_set_no": 999,
        "meta_rev_at_epoch": 544,
        "meta_bstar": 0,
        "meta_mean_motion_dot": 8.1e-07,
        "meta_mean_motion_ddot": 0,
        "tle_line1": "1 40732U 15034A   25356.19371589  .00000081  00000+0  00000+0 0  9990",
        "tle_line2": "2 40732   2.7599  71.9763 0000789 136.9247 321.0298  1.00270451  5447"
      },
      "geometry": {
        "type": "Point",
        "coordinates": [
          95.01520088355028,
          1.1058876640793422
        ]
      }
    },
    {
      "type": "Feature",
      "properties": {
        "norad_id": 41105,
        "name": "ELEKTRO-L 2",
        "group": "weather",
        "lat": -0.12339827814352526,
        "lon": 71.41816982842226,
        "alt_km": 35798.718455068076,
        "timestamp": "2025-12-22T23:36:20.342112+00:00",
        "meta_object_name": "ELEKTRO-L 2",
        "meta_object_id": "2015-074A",
        "meta_epoch": "2025-12-22T09:40:20.690400",
        "meta_mean_motion": 1.00272412,
        "meta_eccentricity": 0.00034908,
        "meta_inclination": 6.2484,
        "meta_ra_of_asc_node": 72.7137,
        "meta_arg_of_pericenter": 209.0191,
        "meta_mean_anomaly": 300.0898,
        "meta_ephemeris_type": 0,
        "meta_classification_type": "U",
        "meta_norad_cat_id": 41105,
        "meta_element_set_no": 999,
        "meta_rev_at_epoch": 3673,
        "meta_bstar": 0,
        "meta_mean_motion_dot": -9.9e-07,
        "meta_mean_motion_ddot": 0,
        "tle_line1": "1 41105U 15074A   25356.40301725 -.00000099  00000+0  00000+0 0  9998",
        "tle_line2": "2 41105   6.2484  72.7137 0003490 209.0191 300.0898  1.00272412 36738"
      },
      "geometry": {
        "type": "Point",
        "coordinates": [
          71.41816982842226,
          -0.12339827814352526
        ]
      }
    },
    {
      "type": "Feature",
      "properties": {
        "norad_id": 41752,
        "name": "INSAT-3DR",
        "group": "weather",
        "lat": 0.12055218316342123,
        "lon": 159.69654450567404,
        "alt_km": 35808.617031752,
        "timestamp": "2025-12-22T23:36:20.342124+00:00",
        "meta_object_name": "INSAT-3DR",
        "meta_object_id": "2016-054A",
        "meta_epoch": "2025-12-22T13:31:07.392000",
        "meta_mean_motion": 1.00271583,
        "meta_eccentricity": 0.00141711,
        "meta_inclination": 0.1152,
        "meta_ra_of_asc_node": 86.2473,
        "meta_arg_of_pericenter": 185.4983,
        "meta_mean_anomaly": 96.3911,
        "meta_ephemeris_type": 0,
        "meta_classification_type": "U",
        "meta_norad_cat_id": 41752,
        "meta_element_set_no": 999,
        "meta_rev_at_epoch": 3404,
        "meta_bstar": 0,
        "meta_mean_motion_dot": -5.5e-07,
        "meta_mean_motion_ddot": 0,
        "tle_line1": "1 41752U 16054A   25356.56328000 -.00000055  00000+0  00000+0 0  9999",
        "tle_line2": "2 41752   0.1152  86.2473 0014171 185.4983  96.3911  1.00271583 34049"
      },
      "geometry": {
        "type": "Point",
        "coordinates": [
          159.69654450567404,
          0.12055218316342123
        ]
      }
    },
    {
      "type": "Feature",
      "properties": {
        "norad_id": 41836,
        "name": "HIMAWARI-9",
        "group": "weather",
        "lat": -0.01770898568251561,
        "lon": -133.39690482183434,
        "alt_km": 35789.171302873394,
        "timestamp": "2025-12-22T23:36:20.342137+00:00",
        "meta_object_name": "HIMAWARI-9",
        "meta_object_id": "2016-064A",
        "meta_epoch": "2025-12-22T13:50:05.574624",
        "meta_mean_motion": 1.00268363,
        "meta_eccentricity": 0.00015821,
        "meta_inclination": 0.0162,
        "meta_ra_of_asc_node": 28.6262,
        "meta_arg_of_pericenter": 306.4522,
        "meta_mean_anomaly": 104.5911,
        "meta_ephemeris_type": 0,
        "meta_classification_type": "U",
        "meta_norad_cat_id": 41836,
        "meta_element_set_no": 999,
        "meta_rev_at_epoch": 3343,
        "meta_bstar": 0,
        "meta_mean_motion_dot": 0,
        "meta_mean_motion_ddot": 0,
        "tle_line1": "1 41836U 16064A   25356.57645341  .00000000  00000+0  00000+0 0  9993",
        "tle_line2": "2 41836   0.0162  28.6262 0001582 306.4522 104.5911  1.00268363 33430"
      },
      "geometry": {
        "type": "Point",
        "coordinates": [
          -133.39690482183434,
          -0.01770898568251561
        ]
      }
    }
  ]
}